     2.100          NAVIGATION                              RINEX VERSION / TYPE
fic2rin                                 10/12/2009 01:16:19 PGM / RUN BY / DATE
                                                            END OF HEADER
30 09 10 11 16  0  0.0  .184036791325D-03  .306954461848D-11  .000000000000D+00
     .240000000000D+02 -.944375000000D+02  .471876798420D-08  .300404861740D+01
    -.492483377457D-05  .119435526431D-01  .704824924469D-05  .515366575432D+04
     .576000000000D+05  .188127160072D-06  .124395516329D+01 -.121071934700D-06
     .953180891833D+00  .237937500000D+03  .146042256485D+01 -.799176146037D-08
     .767889128522D-10  .100000000000D+01  .155300000000D+04  .000000000000D+00
     .340000000000D+01  .000000000000D+00 -.791624188423D-08  .240000000000D+02
     .504060000000D+05  .400000000000D+01
31 09 10 11 16  0  0.0 -.630789436400D-04  .682121026330D-12  .000000000000D+00
     .830000000000D+02 -.217812500000D+02  .438625413366D-08 -.988002610914D+00
    -.122748315334D-05  .720120442566D-02  .412389636040D-05  .515353570938D+04
     .576000000000D+05 -.100582838058D-06  .239732512541D+00 -.502914190292D-07
     .974626214648D+00  .311562500000D+03 -.114753551274D+01 -.828677374882D-08
     .172864343351D-09  .100000000000D+01  .155300000000D+04  .000000000000D+00
     .340000000000D+01  .000000000000D+00 -.130385160446D-07  .830000000000D+02
     .504060000000D+05  .400000000000D+01
32 09 10 11 16  0  0.0  .179867260158D-03 -.727595761418D-11  .000000000000D+00
     .940000000000D+02  .467500000000D+02  .441804117201D-08 -.763216767499D-01
     .247545540333D-05  .132471309043D-01  .875815749168D-05  .515369293404D+04
     .576000000000D+05 -.149011611938D-06 -.176875526186D+01 -.240281224251D-06
     .961900528732D+00  .217531250000D+03 -.110356487662D+01 -.811676666734D-08
    -.342514267094D-09  .100000000000D+01  .155300000000D+04  .000000000000D+00
     .240000000000D+01  .000000000000D+00 -.325962901115D-08  .940000000000D+02
     .504060000000D+05  .400000000000D+01
23 09 10 11 15 59 44.0  .387621577829D-03 -.454747350886D-12  .000000000000D+00
     .100000000000D+01  .776562500000D+02  .417338812408D-08  .784726555262D+00
     .408291816711D-05  .639272283297D-02  .611133873463D-05  .515376750755D+04
     .575840000000D+05  .204890966415D-06 -.800104719390D+00  .111758708954D-06
     .969638274035D+00  .265218750000D+03  .298830916810D+01 -.807033616189D-08
     .127505311108D-09  .100000000000D+01  .155300000000D+04  .000000000000D+00
     .240000000000D+01  .000000000000D+00 -.200234353542D-07  .100000000000D+01
     .522660000000D+05  .400000000000D+01
11 09 10 11 15 59 44.0 -.237384811044D-04 -.181898940355D-11  .000000000000D+00
     .700000000000D+01  .141875000000D+02  .653062916978D-08 -.953774283590D+00
     .737607479095D-06  .999844120815D-02  .645592808723D-05  .515369431496D+04
     .575840000000D+05  .206753611565D-06 -.312276369247D+01  .180676579475D-06
     .889394720186D+00  .215656250000D+03  .738203094905D+00 -.900108921721D-08
    -.137505727665D-09  .100000000000D+01  .155300000000D+04  .000000000000D+00
     .240000000000D+01  .000000000000D+00 -.116415321827D-07  .700000000000D+01
     .526860000000D+05  .400000000000D+01
 8 09 10 11 15 59 44.0 -.224750488997D-03 -.170530256582D-11  .000000000000D+00
     .270000000000D+02 -.421250000000D+02  .401623872103D-08 -.147503274380D+01
    -.249966979027D-05  .109929566970D-01  .383704900742D-05  .515361801338D+04
     .575840000000D+05 -.540167093277D-07  .304350654478D+00 -.111758708954D-06
     .990530052055D+00  .322125000000D+03  .303741169744D+01 -.807819363205D-08
     .244295890190D-09  .100000000000D+01  .155300000000D+04  .000000000000D+00
     .240000000000D+01  .000000000000D+00 -.372529029846D-08  .270000000000D+02
     .567360000000D+05  .400000000000D+01
 6 09 10 11 15 59 44.0  .251626595855D-03  .443378667114D-11  .000000000000D+00
     .200000000000D+01 -.781250000000D+01  .530700677242D-08  .293973044097D+01
    -.279396772385D-06  .578958296683D-02  .925548374653D-05  .515369866180D+04
     .575840000000D+05  .117346644402D-06  .228702219796D+01  .763684511185D-07
     .934042369928D+00  .183125000000D+03 -.123340837097D+01 -.825070081766D-08
     .246795994329D-09  .100000000000D+01  .155300000000D+04  .000000000000D+00
     .240000000000D+01  .000000000000D+00 -.512227416039D-08  .200000000000D+01
     .568260000000D+05  .400000000000D+01
 6 09 10 11 17 59 44.0  .251658260822D-03  .443378667114D-11  .000000000000D+00
     .120000000000D+02 -.140937500000D+02  .523771817199D-08 -.229322989480D+01
    -.564381480217D-06  .578875071369D-02  .936910510063D-05  .515370032692D+04
     .647840000000D+05 -.186264514923D-07  .228696254748D+01  .800937414169D-07
     .934044716449D+00  .182031250000D+03 -.123346240385D+01 -.818784105645D-08
     .332871008271D-09  .100000000000D+01  .155300000000D+04  .000000000000D+00
     .240000000000D+01  .000000000000D+00 -.512227416039D-08  .120000000000D+02
     .576060000000D+05  .400000000000D+01
 8 09 10 11 17 59 44.0 -.224763061851D-03 -.170530256582D-11  .000000000000D+00
     .280000000000D+02 -.355000000000D+02  .398945189097D-08 -.424856522671D+00
    -.187009572983D-05  .109922977863D-01  .363588333130D-05  .515361667824D+04
     .647840000000D+05  .137835741043D-06  .304292932119D+00 -.102445483208D-06
     .990531111208D+00  .320656250000D+03  .303744622377D+01 -.816998316974D-08
     .116790579082D-09  .100000000000D+01  .155300000000D+04  .000000000000D+00
     .240000000000D+01  .000000000000D+00 -.372529029846D-08  .280000000000D+02
     .576060000000D+05  .400000000000D+01
11 09 10 11 17 59 44.0 -.237515196204D-04 -.181898940355D-11  .000000000000D+00
     .800000000000D+01  .190000000000D+02  .669277878110D-08  .964378580296D-01
     .111572444439D-05  .999929395039D-02  .608898699284D-05  .515369602776D+04
     .647840000000D+05 -.931322574615D-08 -.312282978418D+01  .838190317154D-07
     .889392903242D+00  .220031250000D+03  .738174186181D+00 -.922931300936D-08
    -.108218793461D-09  .100000000000D+01  .155300000000D+04  .000000000000D+00
     .240000000000D+01  .000000000000D+00 -.116415321827D-07  .800000000000D+01
     .576060000000D+05  .400000000000D+01
23 09 10 11 17 59 44.0  .387617852539D-03 -.454747350886D-12  .000000000000D+00
     .120000000000D+02  .738437500000D+02  .412874340731D-08  .183475808355D+01
     .400841236115D-05  .639227137435D-02  .664032995701D-05  .515376834869D+04
     .647840000000D+05 -.633299350739D-07 -.800161185102D+00  .931322574615D-07
     .969638761186D+00  .256812500000D+03  .298839837246D+01 -.794711674360D-08
    -.607168148133D-10  .100000000000D+01  .155300000000D+04  .000000000000D+00
     .240000000000D+01  .000000000000D+00 -.200234353542D-07  .120000000000D+02
     .576060000000D+05  .400000000000D+01
 1 09 10 11 18  0  0.0 -.595273450017D-04 -.125055521494D-11  .000000000000D+00
     .540000000000D+02 -.996875000000D+02  .578345518984D-08 -.184340456138D+01
    -.516697764397D-05  .381442694925D-02  .761449337006D-05  .515370314407D+04
     .648000000000D+05  .931322574615D-07  .128088483029D+01 -.428408384323D-07
     .961921306558D+00  .233093750000D+03  .978254077398D+00 -.804462080503D-08
     .126433837905D-09  .100000000000D+01  .155300000000D+04  .000000000000D+00
     .240000000000D+01  .630000000000D+02 -.190921127796D-07  .540000000000D+02
     .576060000000D+05  .400000000000D+01
 2 09 10 11 18  0  0.0  .180068425834D-03  .352429196937D-11  .000000000000D+00
     .250000000000D+02  .187500000000D+02  .533557939116D-08  .193265640489D+01
     .108592212200D-05  .911662436556D-02  .710040330887D-05  .515371337318D+04
     .648000000000D+05  .763684511185D-07 -.291587862669D+01  .167638063431D-06
     .941071723483D+00  .232093750000D+03  .290352249875D+01 -.833177562333D-08
    -.263225250103D-09  .100000000000D+01  .155300000000D+04  .000000000000D+00
     .240000000000D+01  .000000000000D+00 -.172294676304D-07  .250000000000D+02
     .576060000000D+05  .400000000000D+01
 3 09 10 11 18  0  0.0  .459271483123D-03  .534328137292D-11  .000000000000D+00
     .310000000000D+02 -.271875000000D+02  .544915555063D-08  .167056387707D+01
    -.141374766827D-05  .125648160465D-01  .985898077488D-05  .515366368103D+04
     .648000000000D+05 -.363215804100D-06  .221823589959D+01 -.117346644402D-06
     .926566993132D+00  .174468750000D+03  .952023717781D+00 -.844106588999D-08
     .294297972978D-09  .100000000000D+01  .155300000000D+04  .000000000000D+00
     .340000000000D+01  .000000000000D+00 -.465661287308D-08  .310000000000D+02
     .576060000000D+05  .400000000000D+01
 4 09 10 11 18  0  0.0 -.306295696646D-03 -.177351466846D-10  .000000000000D+00
     .220000000000D+02  .160625000000D+02  .529200614758D-08 -.151538899065D+01
     .800937414169D-06  .890896341298D-02  .680051743984D-05  .515354520035D+04
     .648000000000D+05  .134110450745D-06 -.289768842241D+01 -.949949026108D-07
     .940252704408D+00  .235875000000D+03  .535529081244D+00 -.827963059413D-08
    -.885751180806D-10  .100000000000D+01  .155300000000D+04  .000000000000D+00
     .240000000000D+01  .000000000000D+00 -.605359673500D-08  .220000000000D+02
     .576060000000D+05  .400000000000D+01
 5 09 10 11 18  0  0.0 -.678626820445D-04  .898126018001D-11  .000000000000D+00
     .330000000000D+02  .455000000000D+02  .446125725784D-08 -.298263358284D+01
     .227801501751D-05  .151718594134D-02  .911392271519D-05  .515357395172D+04
     .648000000000D+05  .167638063431D-07 -.185780867808D+01 -.353902578354D-07
     .961107423788D+00  .204906250000D+03  .228946500929D+00 -.797283210046D-08
    -.454661795632D-09  .100000000000D+01  .155300000000D+04  .000000000000D+00
     .240000000000D+01  .000000000000D+00 -.931322574615D-08  .330000000000D+02
     .576060000000D+05  .400000000000D+01
